[{"OBJECT_NAME":"KUIPER-00300","OBJECT_ID":"2026-072AA","EPOCH":"2026-04-17T21:27:12.932352","MEAN_MOTION":15.36867041,"ECCENTRICITY":0.00079884,"INCLINATION":51.8661,"RA_OF_ASC_NODE":108.5711,"ARG_OF_PERICENTER":157.9659,"MEAN_ANOMALY":202.1672,"EPHEMERIS_TYPE":0,"CLASSIFICATION_TYPE":"U","NORAD_CAT_ID":68597,"ELEMENT_SET_NO":999,"REV_AT_EPOCH":210,"BSTAR":0.00029257162,"MEAN_MOTION_DOT":0.00010341,"MEAN_MOTION_DDOT":0},{"OBJECT_NAME":"KUIPER-00301","OBJECT_ID":"2026-072AB","EPOCH":"2026-04-17T21:31:15.058848","MEAN_MOTION":15.36540316,"ECCENTRICITY":0.00086578,"INCLINATION":51.8639,"RA_OF_ASC_NODE":108.5876,"ARG_OF_PERICENTER":161.2098,"MEAN_ANOMALY":198.921,"EPHEMERIS_TYPE":0,"CLASSIFICATION_TYPE":"U","NORAD_CAT_ID":68598,"ELEMENT_SET_NO":999,"REV_AT_EPOCH":210,"BSTAR":0.00028453234,"MEAN_MOTION_DOT":9.939e-5,"MEAN_MOTION_DDOT":0},{"OBJECT_NAME":"KUIPER-00304","OBJECT_ID":"2026-072AC","EPOCH":"2026-04-17T23:06:02.569536","MEAN_MOTION":15.36458128,"ECCENTRICITY":0.0009305,"INCLINATION":51.8654,"RA_OF_ASC_NODE":108.2793,"ARG_OF_PERICENTER":161.0401,"MEAN_ANOMALY":199.0934,"EPHEMERIS_TYPE":0,"CLASSIFICATION_TYPE":"U","NORAD_CAT_ID":68599,"ELEMENT_SET_NO":999,"REV_AT_EPOCH":211,"BSTAR":0.00040322161,"MEAN_MOTION_DOT":0.0001422,"MEAN_MOTION_DDOT":0},{"OBJECT_NAME":"KUIPER-00317","OBJECT_ID":"2026-072AD","EPOCH":"2026-04-17T21:28:33.663648","MEAN_MOTION":15.36766346,"ECCENTRICITY":0.00084134,"INCLINATION":51.8674,"RA_OF_ASC_NODE":108.5776,"ARG_OF_PERICENTER":153.2341,"MEAN_ANOMALY":206.9081,"EPHEMERIS_TYPE":0,"CLASSIFICATION_TYPE":"U","NORAD_CAT_ID":68600,"ELEMENT_SET_NO":999,"REV_AT_EPOCH":210,"BSTAR":0.00027592615,"MEAN_MOTION_DOT":9.698e-5,"MEAN_MOTION_DDOT":0},{"OBJECT_NAME":"KUIPER-00320","OBJECT_ID":"2026-072AE","EPOCH":"2026-04-17T21:38:53.792736","MEAN_MOTION":15.3595539,"ECCENTRICITY":0.00110275,"INCLINATION":51.8593,"RA_OF_ASC_NODE":108.6171,"ARG_OF_PERICENTER":167.2703,"MEAN_ANOMALY":192.8563,"EPHEMERIS_TYPE":0,"CLASSIFICATION_TYPE":"U","NORAD_CAT_ID":68601,"ELEMENT_SET_NO":999,"REV_AT_EPOCH":210,"BSTAR":0.00026184997,"MEAN_MOTION_DOT":8.945e-5,"MEAN_MOTION_DDOT":0},{"OBJECT_NAME":"STARLINK-37135","OBJECT_ID":"2026-073A","EPOCH":"2026-04-16T16:21:14.363136","MEAN_MOTION":15.80739549,"ECCENTRICITY":1.78e-5,"INCLINATION":97.2853,"RA_OF_ASC_NODE":304.276,"ARG_OF_PERICENTER":122.2893,"MEAN_ANOMALY":237.8393,"EPHEMERIS_TYPE":0,"CLASSIFICATION_TYPE":"U","NORAD_CAT_ID":68602,"ELEMENT_SET_NO":999,"REV_AT_EPOCH":153,"BSTAR":0.00021594743,"MEAN_MOTION_DOT":0.00041272,"MEAN_MOTION_DDOT":0},{"OBJECT_NAME":"STARLINK-37189","OBJECT_ID":"2026-073B","EPOCH":"2026-04-16T22:24:43.463232","MEAN_MOTION":15.80854689,"ECCENTRICITY":0.00013066,"INCLINATION":97.2849,"RA_OF_ASC_NODE":304.5446,"ARG_OF_PERICENTER":98.2355,"MEAN_ANOMALY":261.9061,"EPHEMERIS_TYPE":0,"CLASSIFICATION_TYPE":"U","NORAD_CAT_ID":68603,"ELEMENT_SET_NO":999,"REV_AT_EPOCH":157,"BSTAR":0.00074866998,"MEAN_MOTION_DOT":0.00145944,"MEAN_MOTION_DDOT":0},{"OBJECT_NAME":"STARLINK-37130","OBJECT_ID":"2026-073C","EPOCH":"2026-04-16T22:23:38.621760","MEAN_MOTION":15.80883054,"ECCENTRICITY":0.00016577,"INCLINATION":97.2851,"RA_OF_ASC_NODE":304.5451,"ARG_OF_PERICENTER":89.9933,"MEAN_ANOMALY":270.1525,"EPHEMERIS_TYPE":0,"CLASSIFICATION_TYPE":"U","NORAD_CAT_ID":68604,"ELEMENT_SET_NO":999,"REV_AT_EPOCH":157,"BSTAR":0.00095927045,"MEAN_MOTION_DOT":0.00188199,"MEAN_MOTION_DDOT":0},{"OBJECT_NAME":"STARLINK-37131","OBJECT_ID":"2026-073D","EPOCH":"2026-04-16T22:22:33.375072","MEAN_MOTION":15.80890665,"ECCENTRICITY":8.073e-5,"INCLINATION":97.2847,"RA_OF_ASC_NODE":304.547,"ARG_OF_PERICENTER":59.4627,"MEAN_ANOMALY":300.6721,"EPHEMERIS_TYPE":0,"CLASSIFICATION_TYPE":"U","NORAD_CAT_ID":68605,"ELEMENT_SET_NO":999,"REV_AT_EPOCH":157,"BSTAR":0.00071344491,"MEAN_MOTION_DOT":0.0013919,"MEAN_MOTION_DDOT":0},{"OBJECT_NAME":"STARLINK-37253","OBJECT_ID":"2026-073E","EPOCH":"2026-04-16T22:21:28.766016","MEAN_MOTION":15.80886561,"ECCENTRICITY":0.00018835,"INCLINATION":97.2849,"RA_OF_ASC_NODE":304.5476,"ARG_OF_PERICENTER":55.3759,"MEAN_ANOMALY":304.7686,"EPHEMERIS_TYPE":0,"CLASSIFICATION_TYPE":"U","NORAD_CAT_ID":68606,"ELEMENT_SET_NO":999,"REV_AT_EPOCH":157,"BSTAR":0.00086093402,"MEAN_MOTION_DOT":0.00168538,"MEAN_MOTION_DDOT":0},{"OBJECT_NAME":"STARLINK-37246","OBJECT_ID":"2026-073F","EPOCH":"2026-04-16T20:49:21.739008","MEAN_MOTION":15.80170803,"ECCENTRICITY":0.0001084,"INCLINATION":97.285,"RA_OF_ASC_NODE":304.4818,"ARG_OF_PERICENTER":105.311,"MEAN_ANOMALY":254.8277,"EPHEMERIS_TYPE":0,"CLASSIFICATION_TYPE":"U","NORAD_CAT_ID":68607,"ELEMENT_SET_NO":999,"REV_AT_EPOCH":156,"BSTAR":-0.0038848448,"MEAN_MOTION_DOT":-0.006697,"MEAN_MOTION_DDOT":0},{"OBJECT_NAME":"STARLINK-37243","OBJECT_ID":"2026-073G","EPOCH":"2026-04-16T22:19:18.935328","MEAN_MOTION":15.8087453,"ECCENTRICITY":0.00017196,"INCLINATION":97.2851,"RA_OF_ASC_NODE":304.5495,"ARG_OF_PERICENTER":92.2401,"MEAN_ANOMALY":267.9064,"EPHEMERIS_TYPE":0,"CLASSIFICATION_TYPE":"U","NORAD_CAT_ID":68608,"ELEMENT_SET_NO":999,"REV_AT_EPOCH":157,"BSTAR":0.00083080575,"MEAN_MOTION_DOT":0.0016243,"MEAN_MOTION_DDOT":0},{"OBJECT_NAME":"STARLINK-37250","OBJECT_ID":"2026-073H","EPOCH":"2026-04-16T19:15:55.465920","MEAN_MOTION":15.80899619,"ECCENTRICITY":0.00014697,"INCLINATION":97.2852,"RA_OF_ASC_NODE":304.4166,"ARG_OF_PERICENTER":74.077,"MEAN_ANOMALY":286.066,"EPHEMERIS_TYPE":0,"CLASSIFICATION_TYPE":"U","NORAD_CAT_ID":68609,"ELEMENT_SET_NO":999,"REV_AT_EPOCH":155,"BSTAR":0.001154766,"MEAN_MOTION_DOT":0.00227791,"MEAN_MOTION_DDOT":0},{"OBJECT_NAME":"STARLINK-37105","OBJECT_ID":"2026-073J","EPOCH":"2026-04-16T22:17:08.962944","MEAN_MOTION":15.80867824,"ECCENTRICITY":7.186e-5,"INCLINATION":97.2847,"RA_OF_ASC_NODE":304.5516,"ARG_OF_PERICENTER":61.9058,"MEAN_ANOMALY":298.2283,"EPHEMERIS_TYPE":0,"CLASSIFICATION_TYPE":"U","NORAD_CAT_ID":68610,"ELEMENT_SET_NO":999,"REV_AT_EPOCH":157,"BSTAR":0.00081635483,"MEAN_MOTION_DOT":0.00159495,"MEAN_MOTION_DDOT":0},{"OBJECT_NAME":"STARLINK-37177","OBJECT_ID":"2026-073K","EPOCH":"2026-04-16T22:16:04.178496","MEAN_MOTION":15.80867356,"ECCENTRICITY":0.00014154,"INCLINATION":97.285,"RA_OF_ASC_NODE":304.553,"ARG_OF_PERICENTER":98.9568,"MEAN_ANOMALY":261.186,"EPHEMERIS_TYPE":0,"CLASSIFICATION_TYPE":"U","NORAD_CAT_ID":68611,"ELEMENT_SET_NO":999,"REV_AT_EPOCH":157,"BSTAR":0.00095254278,"MEAN_MOTION_DOT":0.0018671,"MEAN_MOTION_DDOT":0},{"OBJECT_NAME":"STARLINK-36386","OBJECT_ID":"2026-073L","EPOCH":"2026-04-16T22:14:59.227296","MEAN_MOTION":15.80844895,"ECCENTRICITY":0.00015197,"INCLINATION":97.2847,"RA_OF_ASC_NODE":304.5539,"ARG_OF_PERICENTER":94.6896,"MEAN_ANOMALY":265.4546,"EPHEMERIS_TYPE":0,"CLASSIFICATION_TYPE":"U","NORAD_CAT_ID":68612,"ELEMENT_SET_NO":999,"REV_AT_EPOCH":157,"BSTAR":0.00069148216,"MEAN_MOTION_DOT":0.0013455,"MEAN_MOTION_DDOT":0},{"OBJECT_NAME":"STARLINK-36187","OBJECT_ID":"2026-073M","EPOCH":"2026-04-16T22:13:54.731424","MEAN_MOTION":15.8087167,"ECCENTRICITY":0.00010471,"INCLINATION":97.2851,"RA_OF_ASC_NODE":304.5545,"ARG_OF_PERICENTER":68.9794,"MEAN_ANOMALY":291.1586,"EPHEMERIS_TYPE":0,"CLASSIFICATION_TYPE":"U","NORAD_CAT_ID":68613,"ELEMENT_SET_NO":999,"REV_AT_EPOCH":157,"BSTAR":0.0011137567,"MEAN_MOTION_DOT":0.00219198,"MEAN_MOTION_DDOT":0},{"OBJECT_NAME":"STARLINK-37170","OBJECT_ID":"2026-073N","EPOCH":"2026-04-16T22:12:49.977216","MEAN_MOTION":15.80857723,"ECCENTRICITY":0.00022732,"INCLINATION":97.2849,"RA_OF_ASC_NODE":304.5555,"ARG_OF_PERICENTER":60.2004,"MEAN_ANOMALY":299.949,"EPHEMERIS_TYPE":0,"CLASSIFICATION_TYPE":"U","NORAD_CAT_ID":68614,"ELEMENT_SET_NO":999,"REV_AT_EPOCH":157,"BSTAR":0.00083529001,"MEAN_MOTION_DOT":0.00163204,"MEAN_MOTION_DDOT":0},{"OBJECT_NAME":"STARLINK-37176","OBJECT_ID":"2026-073P","EPOCH":"2026-04-16T22:11:45.626496","MEAN_MOTION":15.80824058,"ECCENTRICITY":0.00010354,"INCLINATION":97.2851,"RA_OF_ASC_NODE":304.5566,"ARG_OF_PERICENTER":41.3932,"MEAN_ANOMALY":318.7415,"EPHEMERIS_TYPE":0,"CLASSIFICATION_TYPE":"U","NORAD_CAT_ID":68615,"ELEMENT_SET_NO":999,"REV_AT_EPOCH":157,"BSTAR":0.00097035696,"MEAN_MOTION_DOT":0.00189898,"MEAN_MOTION_DDOT":0},{"OBJECT_NAME":"STARLINK-37152","OBJECT_ID":"2026-073Q","EPOCH":"2026-04-16T22:10:39.713664","MEAN_MOTION":15.8084475,"ECCENTRICITY":0.00011776,"INCLINATION":97.2853,"RA_OF_ASC_NODE":304.5571,"ARG_OF_PERICENTER":71.562,"MEAN_ANOMALY":288.5776,"EPHEMERIS_TYPE":0,"CLASSIFICATION_TYPE":"U","NORAD_CAT_ID":68616,"ELEMENT_SET_NO":999,"REV_AT_EPOCH":157,"BSTAR":0.00077056817,"MEAN_MOTION_DOT":0.00150223,"MEAN_MOTION_DDOT":0},{"OBJECT_NAME":"STARLINK-37186","OBJECT_ID":"2026-073R","EPOCH":"2026-04-16T20:38:25.892160","MEAN_MOTION":15.8083803,"ECCENTRICITY":0.00016955,"INCLINATION":97.2849,"RA_OF_ASC_NODE":304.4913,"ARG_OF_PERICENTER":86.3703,"MEAN_ANOMALY":273.7759,"EPHEMERIS_TYPE":0,"CLASSIFICATION_TYPE":"U","NORAD_CAT_ID":68617,"ELEMENT_SET_NO":999,"REV_AT_EPOCH":156,"BSTAR":0.00010284996,"MEAN_MOTION_DOT":0.00019623,"MEAN_MOTION_DDOT":0},{"OBJECT_NAME":"STARLINK-37179","OBJECT_ID":"2026-073S","EPOCH":"2026-04-16T22:08:30.007392","MEAN_MOTION":15.80839578,"ECCENTRICITY":0.00015969,"INCLINATION":97.2848,"RA_OF_ASC_NODE":304.5595,"ARG_OF_PERICENTER":78.7888,"MEAN_ANOMALY":281.356,"EPHEMERIS_TYPE":0,"CLASSIFICATION_TYPE":"U","NORAD_CAT_ID":68618,"ELEMENT_SET_NO":999,"REV_AT_EPOCH":157,"BSTAR":0.00010270704,"MEAN_MOTION_DOT":0.00019597,"MEAN_MOTION_DDOT":0},{"OBJECT_NAME":"STARLINK-37226","OBJECT_ID":"2026-073T","EPOCH":"2026-04-16T22:07:24.314016","MEAN_MOTION":15.80892521,"ECCENTRICITY":0.00012561,"INCLINATION":97.2849,"RA_OF_ASC_NODE":304.56,"ARG_OF_PERICENTER":70.4551,"MEAN_ANOMALY":289.6852,"EPHEMERIS_TYPE":0,"CLASSIFICATION_TYPE":"U","NORAD_CAT_ID":68619,"ELEMENT_SET_NO":999,"REV_AT_EPOCH":157,"BSTAR":-0.00012179335,"MEAN_MOTION_DOT":-0.0002349,"MEAN_MOTION_DDOT":0}]
